CCSDS_OMM_VERS = 2.0
CREATION_DATE  = 
ORIGINATOR     = 

OBJECT_NAME    = YOTSUBA-KULOVER
OBJECT_ID      = 1998-067XN
CENTER_NAME    = EARTH
REF_FRAME      = TEME
TIME_SYSTEM    = UTC
MEAN_ELEMENT_THEORY = SGP/SGP4

EPOCH          = 2026-02-24T05:07:56.601120
MEAN_MOTION    = 15.75262971
ECCENTRICITY   = .00058305
INCLINATION    = 51.6224
RA_OF_ASC_NODE = 126.8957
ARG_OF_PERICENTER = 355.4013
MEAN_ANOMALY   = 4.6931

EPHEMERIS_TYPE = 0
CLASSIFICATION_TYPE = U
NORAD_CAT_ID   = 65941
ELEMENT_SET_NO = 999
REV_AT_EPOCH   = 2137
BSTAR          = .94234481E-3
MEAN_MOTION_DOT = .146862E-2
MEAN_MOTION_DDOT = 0

CCSDS_OMM_VERS = 2.0
CREATION_DATE  = 
ORIGINATOR     = 

OBJECT_NAME    = BOTAN
OBJECT_ID      = 1998-067XP
CENTER_NAME    = EARTH
REF_FRAME      = TEME
TIME_SYSTEM    = UTC
MEAN_ELEMENT_THEORY = SGP/SGP4

EPOCH          = 2026-02-24T06:55:26.561568
MEAN_MOTION    = 16.00338792
ECCENTRICITY   = .0009759
INCLINATION    = 51.6123
RA_OF_ASC_NODE = 120.5374
ARG_OF_PERICENTER = 12.7993
MEAN_ANOMALY   = 347.3263

EPHEMERIS_TYPE = 0
CLASSIFICATION_TYPE = U
NORAD_CAT_ID   = 65942
ELEMENT_SET_NO = 999
REV_AT_EPOCH   = 2146
BSTAR          = .15426298E-2
MEAN_MOTION_DOT = .826763E-2
MEAN_MOTION_DDOT = .33197138E-3

CCSDS_OMM_VERS = 2.0
CREATION_DATE  = 
ORIGINATOR     = 

OBJECT_NAME    = E-KAGAKU-1
OBJECT_ID      = 1998-067XQ
CENTER_NAME    = EARTH
REF_FRAME      = TEME
TIME_SYSTEM    = UTC
MEAN_ELEMENT_THEORY = SGP/SGP4

EPOCH          = 2026-02-24T05:11:09.913344
MEAN_MOTION    = 15.75072795
ECCENTRICITY   = .00061521
INCLINATION    = 51.6245
RA_OF_ASC_NODE = 126.9254
ARG_OF_PERICENTER = 4.6501
MEAN_ANOMALY   = 355.4555

EPHEMERIS_TYPE = 0
CLASSIFICATION_TYPE = U
NORAD_CAT_ID   = 65943
ELEMENT_SET_NO = 999
REV_AT_EPOCH   = 2137
BSTAR          = .93568524E-3
MEAN_MOTION_DOT = .144588E-2
MEAN_MOTION_DDOT = 0

CCSDS_OMM_VERS = 2.0
CREATION_DATE  = 
ORIGINATOR     = 

OBJECT_NAME    = HRC MONOBLOCK CAMERA
OBJECT_ID      = 1998-067XR
CENTER_NAME    = EARTH
REF_FRAME      = TEME
TIME_SYSTEM    = UTC
MEAN_ELEMENT_THEORY = SGP/SGP4

EPOCH          = 2026-02-24T10:50:48.626016
MEAN_MOTION    = 15.60703861
ECCENTRICITY   = .000293
INCLINATION    = 51.6276
RA_OF_ASC_NODE = 132.2644
ARG_OF_PERICENTER = 39.4892
MEAN_ANOMALY   = 320.6315

EPHEMERIS_TYPE = 0
CLASSIFICATION_TYPE = U
NORAD_CAT_ID   = 66052
ELEMENT_SET_NO = 999
REV_AT_EPOCH   = 2032
BSTAR          = .52279E-3
MEAN_MOTION_DOT = .43997E-3
MEAN_MOTION_DDOT = 0

CCSDS_OMM_VERS = 2.0
CREATION_DATE  = 
ORIGINATOR     = 

OBJECT_NAME    = HTV-X1
OBJECT_ID      = 2025-241A
CENTER_NAME    = EARTH
REF_FRAME      = TEME
TIME_SYSTEM    = UTC
MEAN_ELEMENT_THEORY = SGP/SGP4

EPOCH          = 2026-02-24T05:14:04.047360
MEAN_MOTION    = 15.48257925
ECCENTRICITY   = .00084272
INCLINATION    = 51.6318
RA_OF_ASC_NODE = 138.9491
ARG_OF_PERICENTER = 128.0072
MEAN_ANOMALY   = 232.1679

EPHEMERIS_TYPE = 0
CLASSIFICATION_TYPE = U
NORAD_CAT_ID   = 66174
ELEMENT_SET_NO = 999
REV_AT_EPOCH   = 51
BSTAR          = .22801862E-3
MEAN_MOTION_DOT = .11823E-3
MEAN_MOTION_DDOT = 0

CCSDS_OMM_VERS = 2.0
CREATION_DATE  = 
ORIGINATOR     = 

OBJECT_NAME    = SZ-21 MODULE
OBJECT_ID      = 2025-246C
CENTER_NAME    = EARTH
REF_FRAME      = TEME
TIME_SYSTEM    = UTC
MEAN_ELEMENT_THEORY = SGP/SGP4

EPOCH          = 2026-02-23T23:56:04.540992
MEAN_MOTION    = 15.67414814
ECCENTRICITY   = .00015025
INCLINATION    = 41.4750
RA_OF_ASC_NODE = 287.5769
ARG_OF_PERICENTER = 290.9828
MEAN_ANOMALY   = 69.0853

EPHEMERIS_TYPE = 0
CLASSIFICATION_TYPE = U
NORAD_CAT_ID   = 66515
ELEMENT_SET_NO = 999
REV_AT_EPOCH   = 1592
BSTAR          = .29145752E-3
MEAN_MOTION_DOT = .32253E-3
MEAN_MOTION_DDOT = 0

CCSDS_OMM_VERS = 2.0
CREATION_DATE  = 
ORIGINATOR     = 

OBJECT_NAME    = SHENZHOU-22
OBJECT_ID      = 2025-272A
CENTER_NAME    = EARTH
REF_FRAME      = TEME
TIME_SYSTEM    = UTC
MEAN_ELEMENT_THEORY = SGP/SGP4

EPOCH          = 2026-02-24T01:58:41.870784
MEAN_MOTION    = 15.60067811
ECCENTRICITY   = .00054495
INCLINATION    = 41.4668
RA_OF_ASC_NODE = 290.9181
ARG_OF_PERICENTER = 183.7722
MEAN_ANOMALY   = 176.3076

EPHEMERIS_TYPE = 0
CLASSIFICATION_TYPE = U
NORAD_CAT_ID   = 66645
ELEMENT_SET_NO = 999
REV_AT_EPOCH   = 26764
BSTAR          = .23964143E-3
MEAN_MOTION_DOT = .19707E-3
MEAN_MOTION_DDOT = 0

CCSDS_OMM_VERS = 2.0
CREATION_DATE  = 
ORIGINATOR     = 

OBJECT_NAME    = SOYUZ-MS 28
OBJECT_ID      = 2025-275A
CENTER_NAME    = EARTH
REF_FRAME      = TEME
TIME_SYSTEM    = UTC
MEAN_ELEMENT_THEORY = SGP/SGP4

EPOCH          = 2026-02-24T11:25:51.117312
MEAN_MOTION    = 15.48263422
ECCENTRICITY   = .0008377
INCLINATION    = 51.6318
RA_OF_ASC_NODE = 137.6731
ARG_OF_PERICENTER = 128.8407
MEAN_ANOMALY   = 231.3330

EPHEMERIS_TYPE = 0
CLASSIFICATION_TYPE = U
NORAD_CAT_ID   = 66664
ELEMENT_SET_NO = 999
REV_AT_EPOCH   = 55428
BSTAR          = .21063E-3
MEAN_MOTION_DOT = .10887E-3
MEAN_MOTION_DDOT = 0

CCSDS_OMM_VERS = 2.0
CREATION_DATE  = 
ORIGINATOR     = 

OBJECT_NAME    = DUPLEX
OBJECT_ID      = 1998-067XS
CENTER_NAME    = EARTH
REF_FRAME      = TEME
TIME_SYSTEM    = UTC
MEAN_ELEMENT_THEORY = SGP/SGP4

EPOCH          = 2026-02-24T11:34:08.587776
MEAN_MOTION    = 15.55270446
ECCENTRICITY   = .0001748
INCLINATION    = 51.6292
RA_OF_ASC_NODE = 135.4660
ARG_OF_PERICENTER = 74.7440
MEAN_ANOMALY   = 285.3744

EPHEMERIS_TYPE = 0
CLASSIFICATION_TYPE = U
NORAD_CAT_ID   = 66906
ELEMENT_SET_NO = 999
REV_AT_EPOCH   = 1307
BSTAR          = .46667E-3
MEAN_MOTION_DOT = .31856E-3
MEAN_MOTION_DDOT = 0

CCSDS_OMM_VERS = 2.0
CREATION_DATE  = 
ORIGINATOR     = 

OBJECT_NAME    = ISS OBJECT XT
OBJECT_ID      = 1998-067XT
CENTER_NAME    = EARTH
REF_FRAME      = TEME
TIME_SYSTEM    = UTC
MEAN_ELEMENT_THEORY = SGP/SGP4

EPOCH          = 2026-02-24T09:10:38.432928
MEAN_MOTION    = 15.65249808
ECCENTRICITY   = .0003853
INCLINATION    = 51.6254
RA_OF_ASC_NODE = 133.2936
ARG_OF_PERICENTER = 5.2885
MEAN_ANOMALY   = 354.8150

EPHEMERIS_TYPE = 0
CLASSIFICATION_TYPE = U
NORAD_CAT_ID   = 66907
ELEMENT_SET_NO = 999
REV_AT_EPOCH   = 1309
BSTAR          = .11135E-2
MEAN_MOTION_DOT = .113727E-2
MEAN_MOTION_DDOT = 0

CCSDS_OMM_VERS = 2.0
CREATION_DATE  = 
ORIGINATOR     = 

OBJECT_NAME    = ISS OBJECT XU
OBJECT_ID      = 1998-067XU
CENTER_NAME    = EARTH
REF_FRAME      = TEME
TIME_SYSTEM    = UTC
MEAN_ELEMENT_THEORY = SGP/SGP4

EPOCH          = 2026-02-24T06:05:17.052576
MEAN_MOTION    = 15.65299119
ECCENTRICITY   = .0003914
INCLINATION    = 51.6250
RA_OF_ASC_NODE = 133.9315
ARG_OF_PERICENTER = 8.4064
MEAN_ANOMALY   = 351.6996

EPHEMERIS_TYPE = 0
CLASSIFICATION_TYPE = U
NORAD_CAT_ID   = 66908
ELEMENT_SET_NO = 999
REV_AT_EPOCH   = 1307
BSTAR          = .11696E-2
MEAN_MOTION_DOT = .119816E-2
MEAN_MOTION_DDOT = 0

CCSDS_OMM_VERS = 2.0
CREATION_DATE  = 
ORIGINATOR     = 

OBJECT_NAME    = SILVERSAT
OBJECT_ID      = 1998-067XV
CENTER_NAME    = EARTH
REF_FRAME      = TEME
TIME_SYSTEM    = UTC
MEAN_ELEMENT_THEORY = SGP/SGP4

EPOCH          = 2026-02-24T11:12:03.286944
MEAN_MOTION    = 15.67358170
ECCENTRICITY   = .000472
INCLINATION    = 51.6253
RA_OF_ASC_NODE = 132.3537
ARG_OF_PERICENTER = 3.5215
MEAN_ANOMALY   = 356.5813

EPHEMERIS_TYPE = 0
CLASSIFICATION_TYPE = U
NORAD_CAT_ID   = 66909
ELEMENT_SET_NO = 999
REV_AT_EPOCH   = 1311
BSTAR          = .12504E-2
MEAN_MOTION_DOT = .139598E-2
MEAN_MOTION_DDOT = 0

